{"type": "FeatureCollection", "features": [ {"type": "Feature", "properties": {"norad_id": 40799, "name": "COSMOS 2251 DEB", "group": "cosmos-2251-debris", "lat": -55.77277178121068, "lon": 50.95938092947563, "alt_km": 503.28680175321097, "timestamp": "2025-12-23T16:57:12.753257+00:00", "meta": {"OBJECT_NAME": "COSMOS 2251 DEB", "OBJECT_ID": "1993-036BWC", "EPOCH": "2025-12-22T21:57:46.533888", "MEAN_MOTION": 14.96749899, "ECCENTRICITY": 0.0119411, "INCLINATION": 73.9268, "RA_OF_ASC_NODE": 77.6461, "ARG_OF_PERICENTER": 317.3719, "MEAN_ANOMALY": 41.8243, "EPHEMERIS_TYPE": 0, "CLASSIFICATION_TYPE": "U", "NORAD_CAT_ID": 40799, "ELEMENT_SET_NO": 999, "REV_AT_EPOCH": 50129, "BSTAR": 0.0004483, "MEAN_MOTION_DOT": 5.887e-05, "MEAN_MOTION_DDOT": 0}, "tle": {"line1": "1 40799U 93036BWC 25356.91512192  .00005887  00000+0  44830-3 0  9990", "line2": "2 40799  73.9268  77.6461 0119411 317.3719  41.8243 14.96749899501290"}}, "geometry": {"type": "Point", "coordinates": [50.95938092947563, -55.77277178121068]}}, {"type": "Feature", "properties": {"norad_id": 40802, "name": "COSMOS 2251 DEB", "group": "cosmos-2251-debris", "lat": -40.905564077395006, "lon": 117.14191050892772, "alt_km": 641.9257209365933, "timestamp": "2025-12-23T16:57:12.753267+00:00", "meta": {"OBJECT_NAME": "COSMOS 2251 DEB", "OBJECT_ID": "1993-036BWF", "EPOCH": "2025-12-20T16:01:50.950848", "MEAN_MOTION": 14.77686845, "ECCENTRICITY": 0.00629069, "INCLINATION": 74.0403, "RA_OF_ASC_NODE": 137.4571, "ARG_OF_PERICENTER": 234.6618, "MEAN_ANOMALY": 124.8667, "EPHEMERIS_TYPE": 0, "CLASSIFICATION_TYPE": "U", "NORAD_CAT_ID": 40802, "ELEMENT_SET_NO": 999, "REV_AT_EPOCH": 64526, "BSTAR": 0.0005156342, "MEAN_MOTION_DOT": 3.783e-05, "MEAN_MOTION_DDOT": 0}, "tle": {"line1": "1 40802U 93036BWF 25354.66795082  .00003783  00000+0  51563-3 0  9990", "line2": "2 40802  74.0403 137.4571 0062906 234.6618 124.8667 14.77686845645268"}}, "geometry": {"type": "Point", "coordinates": [117.14191050892772, -40.905564077395006]}}, {"type": "Feature", "properties": {"norad_id": 40803, "name": "COSMOS 2251 DEB", "group": "cosmos-2251-debris", "lat": -37.62467944127292, "lon": -136.0158627220277, "alt_km": 703.857008288358, "timestamp": "2025-12-23T16:57:12.753277+00:00", "meta": {"OBJECT_NAME": "COSMOS 2251 DEB", "OBJECT_ID": "1993-036BWG", "EPOCH": "2025-12-21T09:22:13.076832", "MEAN_MOTION": 14.51837554, "ECCENTRICITY": 0.00343739, "INCLINATION": 74.0142, "RA_OF_ASC_NODE": 35.5847, "ARG_OF_PERICENTER": 250.91, "MEAN_ANOMALY": 108.8338, "EPHEMERIS_TYPE": 0, "CLASSIFICATION_TYPE": "U", "NORAD_CAT_ID": 40803, "ELEMENT_SET_NO": 999, "REV_AT_EPOCH": 58878, "BSTAR": 0.0002337407, "MEAN_MOTION_DOT": 9.19e-06, "MEAN_MOTION_DDOT": 0}, "tle": {"line1": "1 40803U 93036BWG 25355.39042913  .00000919  00000+0  23374-3 0  9997", "line2": "2 40803  74.0142  35.5847 0034373 250.9100 108.8338 14.51837554588784"}}, "geometry": {"type": "Point", "coordinates": [-136.0158627220277, -37.62467944127292]}}, {"type": "Feature", "properties": {"norad_id": 40808, "name": "COSMOS 2251 DEB", "group": "cosmos-2251-debris", "lat": 33.550671842708475, "lon": 135.239005402446, "alt_km": 669.4587574459119, "timestamp": "2025-12-23T16:57:12.753288+00:00", "meta": {"OBJECT_NAME": "COSMOS 2251 DEB", "OBJECT_ID": "1993-036BWM", "EPOCH": "2025-12-21T15:48:05.753088", "MEAN_MOTION": 14.67620191, "ECCENTRICITY": 0.00084034, "INCLINATION": 74.0423, "RA_OF_ASC_NODE": 128.2531, "ARG_OF_PERICENTER": 163.7615, "MEAN_ANOMALY": 215.4081, "EPHEMERIS_TYPE": 0, "CLASSIFICATION_TYPE": "U", "NORAD_CAT_ID": 40808, "ELEMENT_SET_NO": 999, "REV_AT_EPOCH": 63750, "BSTAR": 0.0013228625, "MEAN_MOTION_DOT": 7.499e-05, "MEAN_MOTION_DDOT": 0}, "tle": {"line1": "1 40808U 93036BWM 25355.65839992  .00007499  00000+0  13229-2 0  9999", "line2": "2 40808  74.0423 128.2531 0008403 163.7615 215.4081 14.67620191637507"}}, "geometry": {"type": "Point", "coordinates": [135.239005402446, 33.550671842708475]}}, {"type": "Feature", "properties": {"norad_id": 40810, "name": "COSMOS 2251 DEB", "group": "cosmos-2251-debris", "lat": -33.51122069313727, "lon": 42.925205943581794, "alt_km": 709.3555605481524, "timestamp": "2025-12-23T16:57:12.753298+00:00", "meta": {"OBJECT_NAME": "COSMOS 2251 DEB", "OBJECT_ID": "1993-036BWP", "EPOCH": "2025-12-23T03:56:49.945344", "MEAN_MOTION": 14.58782513, "ECCENTRICITY": 0.00180471, "INCLINATION": 74.0361, "RA_OF_ASC_NODE": 54.8832, "ARG_OF_PERICENTER": 205.863, "MEAN_ANOMALY": 154.1635, "EPHEMERIS_TYPE": 0, "CLASSIFICATION_TYPE": "U", "NORAD_CAT_ID": 40810, "ELEMENT_SET_NO": 999, "REV_AT_EPOCH": 61835, "BSTAR": 0.0007215593, "MEAN_MOTION_DOT": 3.351e-05, "MEAN_MOTION_DDOT": 0}, "tle": {"line1": "1 40810U 93036BWP 25357.16446696  .00003351  00000+0  72156-3 0  9993", "line2": "2 40810  74.0361  54.8832 0018047 205.8630 154.1635 14.58782513618352"}}, "geometry": {"type": "Point", "coordinates": [42.925205943581794, -33.51122069313727]}}, {"type": "Feature", "properties": {"norad_id": 46271, "name": "COSMOS 2251 DEB", "group": "cosmos-2251-debris", "lat": -72.88156860044546, "lon": -10.640931960549514, "alt_km": 732.4350605532909, "timestamp": "2025-12-23T16:57:12.753308+00:00", "meta": {"OBJECT_NAME": "COSMOS 2251 DEB", "OBJECT_ID": "1993-036BWT", "EPOCH": "2025-12-19T22:21:35.328960", "MEAN_MOTION": 14.51444335, "ECCENTRICITY": 0.003987, "INCLINATION": 74.0479, "RA_OF_ASC_NODE": 64.6869, "ARG_OF_PERICENTER": 184.8218, "MEAN_ANOMALY": 175.2565, "EPHEMERIS_TYPE": 0, "CLASSIFICATION_TYPE": "U", "NORAD_CAT_ID": 46271, "ELEMENT_SET_NO": 999, "REV_AT_EPOCH": 84746, "BSTAR": 0.00020357, "MEAN_MOTION_DOT": 7.93e-06, "MEAN_MOTION_DDOT": 0}, "tle": {"line1": "1 46271U 93036BWT 25353.93165890  .00000793  00000+0  20357-3 0  9998", "line2": "2 46271  74.0479  64.6869 0039870 184.8218 175.2565 14.51444335847465"}}, "geometry": {"type": "Point", "coordinates": [-10.640931960549514, -72.88156860044546]}}, {"type": "Feature", "properties": {"norad_id": 46430, "name": "COSMOS 2251 DEB", "group": "cosmos-2251-debris", "lat": -19.693368129564476, "lon": -30.379978558474736, "alt_km": 719.4187909692428, "timestamp": "2025-12-23T16:57:12.753318+00:00", "meta": {"OBJECT_NAME": "COSMOS 2251 DEB", "OBJECT_ID": "1993-036BWU", "EPOCH": "2025-12-22T16:14:06.887040", "MEAN_MOTION": 14.51442901, "ECCENTRICITY": 0.01029275, "INCLINATION": 73.9145, "RA_OF_ASC_NODE": 337.5005, "ARG_OF_PERICENTER": 256.0795, "MEAN_ANOMALY": 102.8901, "EPHEMERIS_TYPE": 0, "CLASSIFICATION_TYPE": "U", "NORAD_CAT_ID": 46430, "ELEMENT_SET_NO": 999, "REV_AT_EPOCH": 79827, "BSTAR": 0.0019695835, "MEAN_MOTION_DOT": 8.403e-05, "MEAN_MOTION_DDOT": 0}, "tle": {"line1": "1 46430U 93036BWU 25356.67646860  .00008403  00000+0  19696-2 0  9999", "line2": "2 46430  73.9145 337.5005 0102927 256.0795 102.8901 14.51442901798271"}}, "geometry": {"type": "Point", "coordinates": [-30.379978558474736, -19.693368129564476]}}, {"type": "Feature", "properties": {"norad_id": 46432, "name": "COSMOS 2251 DEB", "group": "cosmos-2251-debris", "lat": -72.93415129515068, "lon": -15.515634167753722, "alt_km": 911.9444292153303, "timestamp": "2025-12-23T16:57:12.753328+00:00", "meta": {"OBJECT_NAME": "COSMOS 2251 DEB", "OBJECT_ID": "1993-036BWW", "EPOCH": "2025-12-22T01:03:47.474208", "MEAN_MOTION": 13.36654939, "ECCENTRICITY": 0.04738658, "INCLINATION": 73.8725, "RA_OF_ASC_NODE": 96.6323, "ARG_OF_PERICENTER": 212.6525, "MEAN_ANOMALY": 332.3153, "EPHEMERIS_TYPE": 0, "CLASSIFICATION_TYPE": "U", "NORAD_CAT_ID": 46432, "ELEMENT_SET_NO": 999, "REV_AT_EPOCH": 67090, "BSTAR": 0.00093620994, "MEAN_MOTION_DOT": 9e-06, "MEAN_MOTION_DDOT": 0}, "tle": {"line1": "1 46432U 93036BWW 25356.04429947  .00000900  00000+0  93621-3 0  9992", "line2": "2 46432  73.8725  96.6323 0473865 212.6525 332.3153 13.36654939670909"}}, "geometry": {"type": "Point", "coordinates": [-15.515634167753722, -72.93415129515068]}}, {"type": "Feature", "properties": {"norad_id": 47045, "name": "COSMOS 2251 DEB", "group": "cosmos-2251-debris", "lat": 16.574284681031166, "lon": 133.846203660578, "alt_km": 769.4543683827342, "timestamp": "2025-12-23T16:57:12.753338+00:00", "meta": {"OBJECT_NAME": "COSMOS 2251 DEB", "OBJECT_ID": "1993-036BWZ", "EPOCH": "2025-12-22T15:55:55.342272", "MEAN_MOTION": 14.38905258, "ECCENTRICITY": 0.00303733, "INCLINATION": 74.058, "RA_OF_ASC_NODE": 130.8857, "ARG_OF_PERICENTER": 270.255, "MEAN_ANOMALY": 108.4261, "EPHEMERIS_TYPE": 0, "CLASSIFICATION_TYPE": "U", "NORAD_CAT_ID": 47045, "ELEMENT_SET_NO": 999, "REV_AT_EPOCH": 7948, "BSTAR": 8.0309913e-05, "MEAN_MOTION_DOT": 2.22e-06, "MEAN_MOTION_DDOT": 0}, "tle": {"line1": "1 47045U 93036BWZ 25356.66383498  .00000222  00000+0  80310-4 0  9990", "line2": "2 47045  74.0580 130.8857 0030373 270.2550 108.4261 14.38905258 79480"}}, "geometry": {"type": "Point", "coordinates": [133.846203660578, 16.574284681031166]}}, {"type": "Feature", "properties": {"norad_id": 47048, "name": "COSMOS 2251 DEB", "group": "cosmos-2251-debris", "lat": 61.91666163187696, "lon": 85.8524763083533, "alt_km": 618.8642653703109, "timestamp": "2025-12-23T16:57:12.753348+00:00", "meta": {"OBJECT_NAME": "COSMOS 2251 DEB", "OBJECT_ID": "1993-036BXC", "EPOCH": "2025-12-21T05:13:53.078880", "MEAN_MOTION": 14.5236804, "ECCENTRICITY": 0.013255, "INCLINATION": 73.9787, "RA_OF_ASC_NODE": 303.1415, "ARG_OF_PERICENTER": 128.8028, "MEAN_ANOMALY": 299.2168, "EPHEMERIS_TYPE": 0, "CLASSIFICATION_TYPE": "U", "NORAD_CAT_ID": 47048, "ELEMENT_SET_NO": 999, "REV_AT_EPOCH": 59813, "BSTAR": 0.00086716, "MEAN_MOTION_DOT": 3.933e-05, "MEAN_MOTION_DDOT": 0}, "tle": {"line1": "1 47048U 93036BXC 25355.21797545  .00003933  00000+0  86716-3 0  9992", "line2": "2 47048  73.9787 303.1415 0132550 128.8028 299.2168 14.52368040598134"}}, "geometry": {"type": "Point", "coordinates": [85.8524763083533, 61.91666163187696]}}]}